COSMOS 2433 [GLONASS-M] 
1 32275U 07052A   22231.47423547 -.00000082  00000+0  00000+0 0  9998
2 32275  66.0810   2.5799 0002554 190.6626 177.5957  2.13104164115314
COSMOS 2432 [GLONASS-M] 
1 32276U 07052B   22231.52462696 -.00000082  00000+0  00000+0 0  9993
2 32276  66.0954   2.6799 0007686 334.4475  20.6270  2.13103370115309
COSMOS 2434 [GLONASS-M] 
1 32393U 07065A   22231.15977582  .00000080  00000+0  00000+0 0  9998
2 32393  64.3765 239.2851 0000715 174.3284 202.4747  2.13103128114019
COSMOS 2436 [GLONASS-M] 
1 32395U 07065C   22231.38857038  .00000082  00000+0  00000+0 0  9990
2 32395  64.3849 239.3358 0014767 350.6641 337.5071  2.13102928113943
COSMOS 2456 [GLONASS-M] 
1 36111U 09070A   22231.62243470 -.00000040  00000+0  00000+0 0  9999
2 36111  64.3670 118.8858 0003725 318.2025 218.2446  2.13099388 98688
COSMOS 2457 [GLONASS-M] 
1 36112U 09070B   22231.46425897 -.00000040  00000+0  00000+0 0  9997
2 36112  64.3505 118.7641 0004690 162.0713  20.8170  2.13101581 98686
COSMOS 2461 [GLONASS-M] 
1 36401U 10007B   22231.60184836 -.00000084  00000+0  00000+0 0  9999
2 36401  65.9654   1.4052 0019202  12.6367 310.8694  2.13103722 97033
COSMOS 2460 [GLONASS-M] 
1 36402U 10007C   22231.24493806 -.00000083  00000+0  00000+0 0  9999
2 36402  65.9525   1.3660 0002314 118.9123 239.8104  2.13106428 97022
COSMOS 2464 [GLONASS-M] 
1 37139U 10041C   22231.54494907  .00000083  00000+0  00000+0 0  9990
2 37139  63.9752 238.3166 0027982   5.6520 164.4022  2.13100794 93099
COSMOS 2476 [GLONASS-M] 
1 37867U 11064A   22231.28116000 -.00000039  00000+0  00000+0 0  9992
2 37867  64.6548 120.2778 0021348 236.4429 304.2246  2.13101907 84020
COSMOS 2477 [GLONASS-M] 
1 37868U 11064B   22231.11385208 -.00000038  00000+0  00000+0 0  9992
2 37868  64.6627 120.3484 0018608 237.5213 352.8785  2.13101781 83972
COSMOS 2475 [GLONASS-M] 
1 37869U 11064C   22231.54502278 -.00000040  00000+0  00000+0 0  9991
2 37869  64.6693 120.3423 0022777 255.5766 263.6951  2.13102181 83995
COSMOS 2485 [GLONASS-M] 
1 39155U 13019A   22231.24353958 -.00000038  00000+0  00000+0 0  9996
2 39155  64.8179 120.7211 0021757 232.2411 323.9644  2.13102058 72496
COSMOS 2492 [GLONASS-M] 
1 39620U 14012A   22231.42370275 -.00000084  00000+0  00000+0 0  9999
2 39620  65.8383   1.0328 0010748 327.5538  41.2805  2.13103228 65454
COSMOS 2500 [GLONASS-M] 
1 40001U 14032A   22231.53222534 -.00000085  00000+0  00000+0 0  9993
2 40001  65.7764   0.8849 0007038 183.3066 127.2755  2.13102362 63666
COSMOS 2501 [GLONASS-K] 
1 40315U 14075A   22231.53765935  .00000082  00000+0  00000+0 0  9991
2 40315  63.6824 238.9612 0019521 212.3287 270.7278  2.13101447 60077
COSMOS 2514 [GLONASS-M] 
1 41330U 16008A   22230.88756294 -.00000084  00000+0  00000+0 0  9995
2 41330  65.5770   0.5840 0010750 201.6601 158.3015  2.13102787 50828
