[{"OBJECT_NAME":"COSMOS 2433 (720)","OBJECT_ID":"2007-052A","EPOCH":"2022-08-19T11:22:53.944608","MEAN_MOTION":2.13104164,"ECCENTRICITY":0.0002554,"INCLINATION":66.081,"RA_OF_ASC_NODE":2.5799,"ARG_OF_PERICENTER":190.6626,"MEAN_ANOMALY":177.5957,"EPHEMERIS_TYPE":0,"CLASSIFICATION_TYPE":"U","NORAD_CAT_ID":32275,"ELEMENT_SET_NO":999,"REV_AT_EPOCH":11531,"BSTAR":0,"MEAN_MOTION_DOT":-8.2e-7,"MEAN_MOTION_DDOT":0},{"OBJECT_NAME":"COSMOS 2432 (719)","OBJECT_ID":"2007-052B","EPOCH":"2022-08-19T12:35:27.769344","MEAN_MOTION":2.1310337,"ECCENTRICITY":0.0007686,"INCLINATION":66.0954,"RA_OF_ASC_NODE":2.6799,"ARG_OF_PERICENTER":334.4475,"MEAN_ANOMALY":20.627,"EPHEMERIS_TYPE":0,"CLASSIFICATION_TYPE":"U","NORAD_CAT_ID":32276,"ELEMENT_SET_NO":999,"REV_AT_EPOCH":11530,"BSTAR":0,"MEAN_MOTION_DOT":-8.2e-7,"MEAN_MOTION_DDOT":0},{"OBJECT_NAME":"COSMOS 2434 (721)","OBJECT_ID":"2007-065A","EPOCH":"2022-08-19T03:50:04.630848","MEAN_MOTION":2.13103128,"ECCENTRICITY":7.15e-5,"INCLINATION":64.3765,"RA_OF_ASC_NODE":239.2851,"ARG_OF_PERICENTER":174.3284,"MEAN_ANOMALY":202.4747,"EPHEMERIS_TYPE":0,"CLASSIFICATION_TYPE":"U","NORAD_CAT_ID":32393,"ELEMENT_SET_NO":999,"REV_AT_EPOCH":11401,"BSTAR":0,"MEAN_MOTION_DOT":8.0e-7,"MEAN_MOTION_DDOT":0},{"OBJECT_NAME":"COSMOS 2436 (723)","OBJECT_ID":"2007-065C","EPOCH":"2022-08-19T09:19:32.480832","MEAN_MOTION":2.13102928,"ECCENTRICITY":0.0014767,"INCLINATION":64.3849,"RA_OF_ASC_NODE":239.3358,"ARG_OF_PERICENTER":350.6641,"MEAN_ANOMALY":337.5071,"EPHEMERIS_TYPE":0,"CLASSIFICATION_TYPE":"U","NORAD_CAT_ID":32395,"ELEMENT_SET_NO":999,"REV_AT_EPOCH":11394,"BSTAR":0,"MEAN_MOTION_DOT":8.2e-7,"MEAN_MOTION_DDOT":0},{"OBJECT_NAME":"COSMOS 2456 (730)","OBJECT_ID":"2009-070A","EPOCH":"2022-08-19T14:56:18.358080","MEAN_MOTION":2.13099388,"ECCENTRICITY":0.0003725,"INCLINATION":64.367,"RA_OF_ASC_NODE":118.8858,"ARG_OF_PERICENTER":318.2025,"MEAN_ANOMALY":218.2446,"EPHEMERIS_TYPE":0,"CLASSIFICATION_TYPE":"U","NORAD_CAT_ID":36111,"ELEMENT_SET_NO":999,"REV_AT_EPOCH":9868,"BSTAR":0,"MEAN_MOTION_DOT":-4.0e-7,"MEAN_MOTION_DDOT":0},{"OBJECT_NAME":"COSMOS 2457 (733)","OBJECT_ID":"2009-070B","EPOCH":"2022-08-19T11:08:31.975008","MEAN_MOTION":2.13101581,"ECCENTRICITY":0.000469,"INCLINATION":64.3505,"RA_OF_ASC_NODE":118.7641,"ARG_OF_PERICENTER":162.0713,"MEAN_ANOMALY":20.817,"EPHEMERIS_TYPE":0,"CLASSIFICATION_TYPE":"U","NORAD_CAT_ID":36112,"ELEMENT_SET_NO":999,"REV_AT_EPOCH":9868,"BSTAR":0,"MEAN_MOTION_DOT":-4.0e-7,"MEAN_MOTION_DDOT":0},{"OBJECT_NAME":"COSMOS 2461 (735)","OBJECT_ID":"2010-007B","EPOCH":"2022-08-19T14:26:39.698304","MEAN_MOTION":2.13103722,"ECCENTRICITY":0.0019202,"INCLINATION":65.9654,"RA_OF_ASC_NODE":1.4052,"ARG_OF_PERICENTER":12.6367,"MEAN_ANOMALY":310.8694,"EPHEMERIS_TYPE":0,"CLASSIFICATION_TYPE":"U","NORAD_CAT_ID":36401,"ELEMENT_SET_NO":999,"REV_AT_EPOCH":9703,"BSTAR":0,"MEAN_MOTION_DOT":-8.4e-7,"MEAN_MOTION_DDOT":0},{"OBJECT_NAME":"COSMOS 2460 (732)","OBJECT_ID":"2010-007C","EPOCH":"2022-08-19T05:52:42.648384","MEAN_MOTION":2.13106428,"ECCENTRICITY":0.0002314,"INCLINATION":65.9525,"RA_OF_ASC_NODE":1.366,"ARG_OF_PERICENTER":118.9123,"MEAN_ANOMALY":239.8104,"EPHEMERIS_TYPE":0,"CLASSIFICATION_TYPE":"U","NORAD_CAT_ID":36402,"ELEMENT_SET_NO":999,"REV_AT_EPOCH":9702,"BSTAR":0,"MEAN_MOTION_DOT":-8.3e-7,"MEAN_MOTION_DDOT":0},{"OBJECT_NAME":"COSMOS 2464 (736)","OBJECT_ID":"2010-041C","EPOCH":"2022-08-19T13:04:43.599648","MEAN_MOTION":2.13100794,"ECCENTRICITY":0.0027982,"INCLINATION":63.9752,"RA_OF_ASC_NODE":238.3166,"ARG_OF_PERICENTER":5.652,"MEAN_ANOMALY":164.4022,"EPHEMERIS_TYPE":0,"CLASSIFICATION_TYPE":"U","NORAD_CAT_ID":37139,"ELEMENT_SET_NO":999,"REV_AT_EPOCH":9309,"BSTAR":0,"MEAN_MOTION_DOT":8.3e-7,"MEAN_MOTION_DDOT":0},{"OBJECT_NAME":"COSMOS 2476 (744)","OBJECT_ID":"2011-064A","EPOCH":"2022-08-19T06:44:52.224000","MEAN_MOTION":2.13101907,"ECCENTRICITY":0.0021348,"INCLINATION":64.6548,"RA_OF_ASC_NODE":120.2778,"ARG_OF_PERICENTER":236.4429,"MEAN_ANOMALY":304.2246,"EPHEMERIS_TYPE":0,"CLASSIFICATION_TYPE":"U","NORAD_CAT_ID":37867,"ELEMENT_SET_NO":999,"REV_AT_EPOCH":8402,"BSTAR":0,"MEAN_MOTION_DOT":-3.9e-7,"MEAN_MOTION_DDOT":0},{"OBJECT_NAME":"COSMOS 2477 (745)","OBJECT_ID":"2011-064B","EPOCH":"2022-08-19T02:43:56.819712","MEAN_MOTION":2.13101781,"ECCENTRICITY":0.0018608,"INCLINATION":64.6627,"RA_OF_ASC_NODE":120.3484,"ARG_OF_PERICENTER":237.5213,"MEAN_ANOMALY":352.8785,"EPHEMERIS_TYPE":0,"CLASSIFICATION_TYPE":"U","NORAD_CAT_ID":37868,"ELEMENT_SET_NO":999,"REV_AT_EPOCH":8397,"BSTAR":0,"MEAN_MOTION_DOT":-3.8e-7,"MEAN_MOTION_DDOT":0},{"OBJECT_NAME":"COSMOS 2475 (743)","OBJECT_ID":"2011-064C","EPOCH":"2022-08-19T13:04:49.968192","MEAN_MOTION":2.13102181,"ECCENTRICITY":0.0022777,"INCLINATION":64.6693,"RA_OF_ASC_NODE":120.3423,"ARG_OF_PERICENTER":255.5766,"MEAN_ANOMALY":263.6951,"EPHEMERIS_TYPE":0,"CLASSIFICATION_TYPE":"U","NORAD_CAT_ID":37869,"ELEMENT_SET_NO":999,"REV_AT_EPOCH":8399,"BSTAR":0,"MEAN_MOTION_DOT":-4.0e-7,"MEAN_MOTION_DDOT":0},{"OBJECT_NAME":"COSMOS 2485 (747)","OBJECT_ID":"2013-019A","EPOCH":"2022-08-19T05:50:41.819712","MEAN_MOTION":2.13102058,"ECCENTRICITY":0.0021757,"INCLINATION":64.8179,"RA_OF_ASC_NODE":120.7211,"ARG_OF_PERICENTER":232.2411,"MEAN_ANOMALY":323.9644,"EPHEMERIS_TYPE":0,"CLASSIFICATION_TYPE":"U","NORAD_CAT_ID":39155,"ELEMENT_SET_NO":999,"REV_AT_EPOCH":7249,"BSTAR":0,"MEAN_MOTION_DOT":-3.8e-7,"MEAN_MOTION_DDOT":0},{"OBJECT_NAME":"COSMOS 2492 (754)","OBJECT_ID":"2014-012A","EPOCH":"2022-08-19T10:10:07.917600","MEAN_MOTION":2.13103228,"ECCENTRICITY":0.0010748,"INCLINATION":65.8383,"RA_OF_ASC_NODE":1.0328,"ARG_OF_PERICENTER":327.5538,"MEAN_ANOMALY":41.2805,"EPHEMERIS_TYPE":0,"CLASSIFICATION_TYPE":"U","NORAD_CAT_ID":39620,"ELEMENT_SET_NO":999,"REV_AT_EPOCH":6545,"BSTAR":0,"MEAN_MOTION_DOT":-8.4e-7,"MEAN_MOTION_DDOT":0},{"OBJECT_NAME":"COSMOS 2500 (755)","OBJECT_ID":"2014-032A","EPOCH":"2022-08-19T12:46:24.269376","MEAN_MOTION":2.13102362,"ECCENTRICITY":0.0007038,"INCLINATION":65.7764,"RA_OF_ASC_NODE":0.8849,"ARG_OF_PERICENTER":183.3066,"MEAN_ANOMALY":127.2755,"EPHEMERIS_TYPE":0,"CLASSIFICATION_TYPE":"U","NORAD_CAT_ID":40001,"ELEMENT_SET_NO":999,"REV_AT_EPOCH":6366,"BSTAR":0,"MEAN_MOTION_DOT":-8.5e-7,"MEAN_MOTION_DDOT":0},{"OBJECT_NAME":"COSMOS 2501 (702K)","OBJECT_ID":"2014-075A","EPOCH":"2022-08-19T12:54:13.767840","MEAN_MOTION":2.13101447,"ECCENTRICITY":0.0019521,"INCLINATION":63.6824,"RA_OF_ASC_NODE":238.9612,"ARG_OF_PERICENTER":212.3287,"MEAN_ANOMALY":270.7278,"EPHEMERIS_TYPE":0,"CLASSIFICATION_TYPE":"U","NORAD_CAT_ID":40315,"ELEMENT_SET_NO":999,"REV_AT_EPOCH":6007,"BSTAR":0,"MEAN_MOTION_DOT":8.2e-7,"MEAN_MOTION_DDOT":0},{"OBJECT_NAME":"COSMOS 2514 (751)","OBJECT_ID":"2016-008A","EPOCH":"2022-08-18T21:18:05.438016","MEAN_MOTION":2.13102787,"ECCENTRICITY":0.001075,"INCLINATION":65.577,"RA_OF_ASC_NODE":0.584,"ARG_OF_PERICENTER":201.6601,"MEAN_ANOMALY":158.3015,"EPHEMERIS_TYPE":0,"CLASSIFICATION_TYPE":"U","NORAD_CAT_ID":41330,"ELEMENT_SET_NO":999,"REV_AT_EPOCH":5082,"BSTAR":0,"MEAN_MOTION_DOT":-8.4e-7,"MEAN_MOTION_DDOT":0}]